NORAD_CAT_ID,OBJECT_NAME,OBJECT_TYPE,EPOCH,MEAN_MOTION,ECCENTRICITY,INCLINATION,RA_OF_ASC_NODE,ARG_OF_PERICENTER,MEAN_ANOMALY,BSTAR,MEAN_MOTION_DOT,MEAN_MOTION_DDOT,TLE_LINE0,TLE_LINE1,TLE_LINE2,SEMIMAJOR_AXIS,PERIOD,APOGEE,PERIGEE,DECAYED
55288.0,STARLINK-5311,PAYLOAD,2024-03-26 12:29:31,14.98325485,0.0002932,70.0017,22.6016,251.9139,108.1701,-2.4118e-05,-3.81e-06,0.0,0 STARLINK-5311,1 55288U 23010V   24086.52050378 -.00000381  00000-0 -24118-4 0  9998,2 55288  70.0017  22.6016 0002932 251.9139 108.1701 14.98325485 66131,6950.207,96.107,574.11,570.034,0.0
55288.0,STARLINK-5311,PAYLOAD,2024-03-27 04:28:41,14.99967849,0.0009522,70.0002,20.9071,301.0171,59.0053,0.017828,0.00229395,0.0,0 STARLINK-5311,1 55288U 23010V   24087.18659255  .00229395  00000-0  17828-1 0  9993,2 55288  70.0002  20.9071 0009522 301.0171  59.0053 14.99967849 66234,6945.133,96.002,573.611,560.384,0.0
55288.0,STARLINK-5311,PAYLOAD,2024-03-27 14:00:01,14.98294371,0.0002921,70.0028,19.9178,268.1707,63.3034,0.0039106,0.00046837,0.0,0 STARLINK-5311,1 55288U 23010V   24087.58334491  .00046837  00000-0  39106-2 0  9991,2 55288  70.0028  19.9178 0002921 268.1707  63.3034 14.98294371 66297,6950.303,96.109,574.198,570.138,0.0
55288.0,STARLINK-5311,PAYLOAD,2024-03-27 20:32:12,14.98320572,0.0002862,70.0016,19.2322,267.0146,93.0685,6.2517e-05,6.53e-06,0.0,0 STARLINK-5311,1 55288U 23010V   24087.85570199  .00000653  00000-0  62517-4 0  9998,2 55288  70.0016  19.2322 0002862 267.0146  93.0685 14.98320572 66337,6950.222,96.108,574.076,570.098,0.0
55288.0,STARLINK-5311,PAYLOAD,2024-03-27 22:08:20,14.98321869,0.0003063,70.0012,19.0643,271.6246,88.4562,5.9064e-05,6.12e-06,0.0,0 STARLINK-5311,1 55288U 23010V   24087.92246198  .00000612  00000-0  59064-4 0  9993,2 55288  70.0012  19.0643 0003063 271.6246  88.4562 14.98321869 66650,6950.218,96.108,574.212,569.954,0.0
55288.0,STARLINK-5311,PAYLOAD,2024-03-28 04:32:52,14.98326476,0.0002903,70.0009,18.3896,272.9873,87.0953,0.00015074,1.706e-05,0.0,0 STARLINK-5311,1 55288U 23010V   24088.18949697  .00001706  00000-0  15074-3 0  9993,2 55288  70.0009  18.3896 0002903 272.9873  87.0953 14.98326476 66388,6950.204,96.107,574.086,570.051,0.0
55288.0,STARLINK-5311,PAYLOAD,2024-03-28 06:09:00,14.98315454,0.0002914,70.0012,18.2207,270.2121,89.8705,0.00034868,4.068e-05,0.0,0 STARLINK-5311,1 55288U 23010V   24088.25625922  .00004068  00000-0  34868-3 0  9999,2 55288  70.0012  18.2207 0002914 270.2121  89.8705 14.98315454 66701,6950.238,96.108,574.128,570.078,0.0
55288.0,STARLINK-5311,PAYLOAD,2024-03-28 22:10:21,14.98328542,0.0002969,70.0022,16.5377,265.3127,94.7693,1.271e-05,5.9e-07,0.0,0 STARLINK-5311,1 55288U 23010V   24088.92385706  .00000059  00000-0  12710-4 0  9995,2 55288  70.0022  16.5377 0002969 265.3127  94.7693 14.98328542 66806,6950.197,96.107,574.126,569.999,0.0
55288.0,STARLINK-5311,PAYLOAD,2024-03-29 04:34:53,14.98345283,0.0002161,70.0019,15.8624,261.2059,98.8855,-0.00024547,-3.022e-05,0.0,0 STARLINK-5311,1 55288U 23010V   24089.19089325 -.00003022  00000-0 -24547-3 0  9998,2 55288  70.0019  15.8624 0002161 261.2059  98.8855 14.98345283 66842,6950.146,96.106,573.513,570.509,0.0
55288.0,STARLINK-5311,PAYLOAD,2024-03-29 19:00:05,14.98327757,0.000237,70.0012,14.3485,256.8232,103.2662,6.1905e-05,6.46e-06,0.0,0 STARLINK-5311,1 55288U 23010V   24089.79173246  .00000646  00000-0  61905-4 0  9997,2 55288  70.0012  14.3485 0002370 256.8232 103.2662 14.98327757 66628,6950.2,96.107,573.712,570.418,0.0
55288.0,STARLINK-5311,PAYLOAD,2024-03-29 22:12:21,14.98327499,0.0002441,70.0011,14.0121,259.0199,101.0686,5.4201e-05,5.54e-06,0.0,0 STARLINK-5311,1 55288U 23010V   24089.92525298  .00000554  00000-0  54201-4 0  9999,2 55288  70.0011  14.0121 0002441 259.0199 101.0686 14.98327499 66958,6950.201,96.107,573.762,570.369,0.0
55288.0,STARLINK-5311,PAYLOAD,2024-03-30 12:37:34,14.98326795,0.0002442,70.0027,12.4978,276.1747,83.9134,-2.588e-05,-4.02e-06,0.0,0 STARLINK-5311,1 55288U 23010V   24090.52609664 -.00000402  00000-0 -25880-4 0  9992,2 55288  70.0027  12.4978 0002442 276.1747  83.9134 14.98326795 67042,6950.203,96.107,573.765,570.371,0.0
55288.0,STARLINK-5311,PAYLOAD,2024-03-30 20:38:16,14.98306331,0.0002931,70.001,11.6562,269.9199,90.1624,-0.00027643,-3.388e-05,0.0,0 STARLINK-5311,1 55288U 23010V   24090.85991768 -.00003388  00000-0 -27643-3 0  9991,2 55288  70.0010  11.6562 0002931 269.9199  90.1624 14.98306331 66786,6950.266,96.109,574.168,570.094,0.0
55288.0,STARLINK-5311,PAYLOAD,2024-03-30 22:14:25,14.98306216,0.0002946,70.0009,11.4878,269.5244,90.5577,-0.00027516,-3.373e-05,0.0,0 STARLINK-5311,1 55288U 23010V   24090.92667856 -.00003373  00000-0 -27516-3 0  9990,2 55288  70.0009  11.4878 0002946 269.5244  90.5577 14.98306216 67105,6950.266,96.109,574.179,570.084,0.0
55288.0,STARLINK-5311,PAYLOAD,2024-03-31 04:38:57,14.9830795,0.0002921,70.001,10.8151,270.925,89.1575,-0.00023545,-2.9e-05,0.0,0 STARLINK-5311,1 55288U 23010V   24091.19372011 -.00002900  00000-0 -23545-3 0  9999,2 55288  70.0010  10.8151 0002921 270.9250  89.1575 14.98307950 67142,6950.261,96.108,574.156,570.096,0.0
55288.0,STARLINK-5311,PAYLOAD,2024-03-31 20:40:16,14.98335052,0.0002927,70.0012,9.1327,266.8432,93.2392,5.5402e-05,5.68e-06,0.0,0 STARLINK-5311,1 55288U 23010V   24091.86129737  .00000568  00000-0  55402-4 0  9992,2 55288  70.0012   9.1327 0002927 266.8432  93.2392 14.98335052 66935,6950.177,96.107,574.077,570.008,0.0
55288.0,STARLINK-5311,PAYLOAD,2024-03-31 22:16:24,14.9833507,0.0003002,70.0013,8.9648,266.433,93.6486,6.3794e-05,6.68e-06,0.0,0 STARLINK-5311,1 55288U 23010V   24091.92805655  .00000668  00000-0  63794-4 0  9993,2 55288  70.0013   8.9648 0003002 266.4330  93.6486 14.98335070 67251,6950.177,96.107,574.129,569.956,0.0
55288.0,STARLINK-5311,PAYLOAD,2024-04-01 11:05:27,14.98362637,0.0002907,70.0015,7.6164,275.2261,84.8566,-0.00030821,-3.772e-05,0.0,0 STARLINK-5311,1 55288U 23010V   24092.46212453 -.00003772  00000-0 -30821-3 0  9996,2 55288  70.0015   7.6164 0002907 275.2261  84.8566 14.98362637 67021,6950.092,96.105,573.977,569.937,0.0
55288.0,STARLINK-5311,PAYLOAD,2024-04-01 20:42:16,14.98321272,0.0002904,70.0018,6.6082,271.6964,88.3863,0.00031961,3.722e-05,0.0,0 STARLINK-5311,1 55288U 23010V   24092.86269583  .00003722  00000-0  31961-3 0  9995,2 55288  70.0018   6.6082 0002904 271.6964  88.3863 14.98321272 67084,6950.22,96.108,574.103,570.067,0.0
55288.0,STARLINK-5311,PAYLOAD,2024-04-02 04:42:57,14.98326888,0.0002817,70.001,5.7666,268.1453,91.9384,0.0002639,3.057e-05,0.0,0 STARLINK-5311,1 55288U 23010V   24093.19649434  .00003057  00000-0  26390-3 0  9990,2 55288  70.0010   5.7666 0002817 268.1453  91.9384 14.98326888 67447,6950.203,96.107,574.025,570.11,0.0
55288.0,STARLINK-5311,PAYLOAD,2024-04-02 20:44:17,14.98336309,0.0002851,70.0009,4.0834,268.2324,91.8509,-0.00011628,-1.48e-05,0.0,0 STARLINK-5311,1 55288U 23010V   24093.86409689 -.00001480  00000-0 -11628-3 0  9998,2 55288  70.0009   4.0834 0002851 268.2324  91.8509 14.98336309 67548,6950.173,96.107,574.02,570.057,0.0
55288.0,STARLINK-5311,PAYLOAD,2024-04-03 03:08:50,14.98334245,0.0002859,70.0009,3.4098,270.2523,89.8309,-0.00012761,-1.615e-05,0.0,0 STARLINK-5311,1 55288U 23010V   24094.13113752 -.00001615  00000-0 -12761-3 0  9991,2 55288  70.0009   3.4098 0002859 270.2523  89.8309 14.98334245 67277,6950.18,96.107,574.032,570.058,0.0
55288.0,STARLINK-5311,PAYLOAD,2024-04-03 11:09:30,14.98327638,0.0002818,70.0003,2.5666,276.5257,83.5581,8.4046e-05,9.1e-06,0.0,0 STARLINK-5311,1 55288U 23010V   24094.46493521  .00000910  00000-0  84046-4 0  9993,2 55288  70.0003   2.5666 0002818 276.5257  83.5581 14.98327638 67631,6950.2,96.107,574.024,570.107,0.0
55288.0,STARLINK-5311,PAYLOAD,2024-04-03 20:46:18,14.98327588,0.0003167,70.0005,1.5569,271.2758,88.8038,5.8149e-05,6.01e-06,0.0,0 STARLINK-5311,1 55288U 23010V   24094.86549255  .00000601  00000-0  58149-4 0  9995,2 55288  70.0005   1.5569 0003167 271.2758  88.8038 14.98327588 67695,6950.2,96.107,574.266,569.864,0.0
55288.0,STARLINK-5311,PAYLOAD,2024-04-04 03:10:49,14.98346768,0.0003082,70.0,0.884,267.7416,92.339,9.0968e-05,9.93e-06,0.0,0 STARLINK-5311,1 55288U 23010V   24095.13251754  .00000993  00000-0  90968-4 0  9999,2 55288  70.0000   0.8840 0003082 267.7416  92.3390 14.98346768 67424,6950.141,96.106,574.148,569.864,0.0
55288.0,STARLINK-5311,PAYLOAD,2024-04-04 11:11:30,14.98334773,0.0003195,70.0005,0.0423,270.5782,89.5011,3.9769e-06,-4.6e-07,0.0,0 STARLINK-5311,1 55288U 23010V   24095.46632525 -.00000046  00000-0  39769-5 0  9997,2 55288  70.0005   0.0423 0003195 270.5782  89.5011 14.98334773 67477,6950.178,96.107,574.264,569.823,0.0
55288.0,STARLINK-5311,PAYLOAD,2024-04-04 20:48:19,14.9832842,0.0002944,69.9999,359.0313,269.7688,90.3134,-1.2622e-05,-2.44e-06,0.0,0 STARLINK-5311,1 55288U 23010V   24095.86689046 -.00000244  00000-0 -12622-4 0  9990,2 55288  69.9999 359.0313 0002944 269.7688  90.3134 14.98328420 67532,6950.198,96.107,574.109,570.017,0.0
55288.0,STARLINK-5311,PAYLOAD,2024-04-04 22:24:27,14.98327257,0.0002976,70.0,358.8631,269.6742,90.4076,-2.4425e-05,-3.84e-06,0.0,0 STARLINK-5311,1 55288U 23010V   24095.93365153 -.00000384  00000-0 -24425-4 0  9997,2 55288  70.0000 358.8631 0002976 269.6742  90.4076 14.98327257 67851,6950.201,96.107,574.135,569.998,0.0
55288.0,STARLINK-5311,PAYLOAD,2024-04-05 11:13:31,14.98330497,0.0002954,70.0003,357.5168,269.9454,90.1367,-8.0525e-06,-1.89e-06,0.0,0 STARLINK-5311,1 55288U 23010V   24096.46772916 -.00000189  00000-0 -80525-5 0  9992,2 55288  70.0003 357.5168 0002954 269.9454  90.1367 14.98330497 67933,6950.191,96.107,574.109,570.003,0.0
55288.0,STARLINK-5311,PAYLOAD,2024-04-05 20:50:20,14.98330808,0.0002999,70.0,356.5068,269.6262,90.4553,1.8377e-05,1.26e-06,0.0,0 STARLINK-5311,1 55288U 23010V   24096.86828753  .00000126  00000-0  18377-4 0  9991,2 55288  70.0000 356.5068 0002999 269.6262  90.4553 14.98330808 67993,6950.19,96.107,574.14,569.971,0.0
